W
FLOCK 4S-35             
1 47473U 21006BN  21077.88605088  .00001527  00000-0  93231-4 0  9991
2 47473  97.5049 140.6482 0009574  70.7619 289.4647 15.11756103  8357
FLOCK 4S-8              
1 47474U 21006BP  21077.88628197  .00001530  00000-0  93373-4 0  9999
2 47474  97.4976 140.5953 0010264  73.3608 286.8749 15.11752579  8350
FLOCK 4S-31             
1 47475U 21006BQ  21077.88640308  .00001477  00000-0  90323-4 0  9990
2 47475  97.4984 140.5991 0009654  71.4162 288.8116 15.11741589  8356
FLOCK 4S-34             
1 47477U 21006BS  21077.88741354  .00001649  00000-0  10052-3 0  9996
2 47477  97.5046 140.6444 0009485  71.2548 288.9711 15.11716598  8354
FLOCK 4S-9              
1 47478U 21006BT  21077.88746956  .00001575  00000-0  96152-4 0  9994
2 47478  97.4987 140.6017 0010226  73.9931 286.2425 15.11715586  8353
FLOCK 4S-32             
1 47479U 21006BU  21077.88784483  .00001506  00000-0  92151-4 0  9991
2 47479  97.4991 140.6024 0009494  72.0286 288.1978 15.11703813  8359
FLOCK 4S-39             
1 47490U 21006CF  21078.12590559  .00001625  00000-0  97158-4 0  9995
2 47490  97.5078 140.9578 0012028  59.3326 300.9089 15.12425063  8395
FLOCK 4S-4              
1 47491U 21006CG  21077.72872202  .00000797  00000-0  49531-4 0  9990
2 47491  97.4964 140.4860 0011760  58.6654 301.5726 15.12425783  8334
FLOCK 4S-17             
1 47492U 21006CH  21077.72775560  .00001094  00000-0  66571-4 0  9994
2 47492  97.5081 140.5696 0012046  59.2611 300.9805 15.12461062  8333
FLOCK 4S-3              
1 47494U 21006CK  21078.12398761  .00000786  00000-0  48805-4 0  9992
2 47494  97.4972 140.8842 0011814  56.5616 303.6742 15.12476430  8397
FLOCK 4S-27             
1 47495U 21006CL  21078.12356792  .00000761  00000-0  47387-4 0  9998
2 47495  97.4971 140.8830 0012237  57.8162 302.4254 15.12497202  8399
FLOCK 4S-18             
1 47496U 21006CM  21078.45392393  .00000820  00000-0  50777-4 0  9995
2 47496  97.5072 141.2825 0012194  56.3300 303.9092 15.12502218  8448
FLOCK 4S-26             
1 47497U 21006CN  21077.79152006  .00000878  00000-0  54053-4 0  9991
2 47497  97.4975 140.5616 0012401  58.6168 301.6275 15.12526381  8342
FLOCK 4S-2              
1 47498U 21006CP  21077.79156254  .00001227  00000-0  74064-4 0  9994
2 47498  97.4975 140.5629 0011940  56.7640 303.4733 15.12530327  8342
FLOCK 4S-40             
1 47499U 21006CQ  21077.72549769  .00000810  00000-0  50137-4 0  9997
2 47499  97.5070 140.5663 0012439  59.2993 300.9462 15.12518644  8339
FLOCK 4S-19             
1 47500U 21006CR  21077.72460529  .00001093  00000-0  66331-4 0  9993
2 47500  97.5070 140.5663 0012350  58.0190 302.2239 15.12550736  8335
FLOCK 4S-38             
1 47512U 21006DD  21077.88016570  .00001511  00000-0  91881-4 0  9999
2 47512  97.5071 140.6721 0010267  68.4103 291.8220 15.11916750  8355
FLOCK 4S-28             
1 47514U 21006DE  21078.47639105  .00001842  00000-0  11121-3 0  9997
2 47514  97.4964 141.1770 0010175  66.6622 293.5678 15.11905703  9400
FLOCK 4S-5              
1 47515U 21006DF  21078.07927117  .00001790  00000-0  10815-3 0  9998
2 47515  97.4958 140.7849 0010577  69.2872 290.9491 15.11907817  8386
FLOCK 4S-16             
1 47516U 21006DG  21078.14683640  .00001560  00000-0  94853-4 0  9997
2 47516  97.5074 140.9309 0010353  69.6736 290.5606 15.11867789  9350
FLOCK 4S-6              
1 47518U 21006DJ  21077.88262766  .00001490  00000-0  90796-4 0  9995
2 47518  97.4967 140.5940 0010480  71.1359 289.1007 15.11850963  9321
FLOCK 4S-29             
1 47520U 21006DL  21077.75083618  .00001688  00000-0  10241-3 0  9996
2 47520  97.4975 140.4663 0009958  70.2452 289.9852 15.11836923  8332
FLOCK 4S-15             
1 47521U 21006DM  21078.41322299  .00001836  00000-0  11111-3 0  9994
2 47521  97.5069 141.1854 0010257  70.0322 290.2012 15.11823908  9407
FLOCK 4S-37             
1 47522U 21006DN  21077.88393604  .00001583  00000-0  96381-4 0  9995
2 47522  97.5063 140.6607 0010006  70.5467 289.6844 15.11814050  9323
FLOCK 4S-10             
1 47523U 21006DP  21078.15343718  .00001679  00000-0  10231-3 0  9993
2 47523  97.4996 140.8664 0010163  74.1551 286.0799 15.11679253  8391
FLOCK 4S-7              
1 47527U 21006DT  21077.88412933  .00001545  00000-0  94158-4 0  9995
2 47527  97.4970 140.5938 0010386  72.1186 288.1176 15.11808741  9318
FLOCK 4S-14             
1 47528U 21006DU  21078.14900052  .00001717  00000-0  10421-3 0  9991
2 47528  97.5065 140.9208 0010237  71.1625 289.0715 15.11808449  9359
FLOCK 4S-36             
1 47530U 21006DW  21078.14981194  .00001632  00000-0  99302-4 0  9992
2 47530  97.5056 140.9153 0009665  69.3394 290.8872 15.11785088  9353
FLOCK 4S-24             
1 47539U 21006DZ  21078.11737016  .00000806  00000-0  49680-4 0  9996
2 47539  97.5001 140.9134 0012782  55.7214 304.5225 15.12676852  8392
FLOCK 4S-20             
1 47540U 21006EA  21078.45011567  .00002587  00000-0  15150-3 0  9993
2 47540  97.5052 141.2768 0012452  55.0195 305.2203 15.12646953  7518
FLOCK 4S-25             
1 47542U 21006EC  21077.72403162  .00002395  00000-0  14069-3 0  9995
2 47542  97.4978 140.5043 0012486  58.4639 301.7809 15.12599834  7407
FLOCK 4S-1              
1 47543U 21006ED  21078.45195176  .00001767  00000-0  10488-3 0  9993
2 47543  97.4981 141.2195 0011937  54.0485 306.1851 15.12572451  7513
FLOCK 4S-30             
1 47544U 21006EE  21077.75148178  .00001723  00000-0  10452-3 0  9999
2 47544  97.4983 140.4714 0009890  70.5799 289.6499 15.11817789  9295
FLOCK 4S-23             
1 47545U 21006EF  21077.91893594  .00002004  00000-0  11808-3 0  9996
2 47545  97.5007 140.7257 0012774  56.2701 303.9745 15.12680820  9332
FLOCK 4S-42             
1 47612U 21006EQ  21078.46183821  .00001436  00000-0  86255-4 0  9994
2 47612  97.5040 141.2486 0012987  65.8196 294.4391 15.12411491  8442
FLOCK 4S-48             
1 47617U 21006EJ  21078.11513245  .00000813  00000-0  49720-4 0  9992
2 47617  97.5026 140.9391 0013141  49.0059 311.2306 15.12946578  9362
FLOCK 4S-46             
1 47684U 21006EK  21077.92045011  .00000815  00000-0  49955-4 0  9997
2 47684  97.5018 140.7383 0009760  80.9483 279.2852 15.12898289  8366
FLOCK 4S-47             
1 47685U 21006EL  21078.41417314  .00002211  00000-0  13414-3 0  9994
2 47685  97.5016 141.1521 0008597  71.4227 288.7936 15.11540307  8432
FLOCK 4S-44             
1 47686U 21006EM  21077.79640645  .00002317  00000-0  13620-3 0  9996
2 47686  97.5043 140.6053 0013532  63.7851 296.4769 15.12596158  8345
FLOCK 4S-43             
1 47687U 21006EN  21078.14540284  .00001595  00000-0  97402-4 0  9993
2 47687  97.5023 140.9015 0008567  63.8978 296.3133 15.11682023  9361
FLOCK 4S-45             
1 47688U 21006EP  21078.41987062  .00001710  00000-0  10496-3 0  9999
2 47688  97.5039 141.1537 0012824  48.0200 312.2120 15.11379504  9401
FLOCK 4S-41             
1 47698U 21006ER  21078.14149327  .00001546  00000-0  94043-4 0  9992
2 47698  97.5084 140.9197 0012437  59.5414 300.7043 15.11843223  8392
